start=new Date('2023-04-05T00:00:00.000Z').valueOf();
sats=[{"OBJECT_ID":"2022-029U","NORAD_CAT_ID":"52106","SEMIMAJOR_AXIS":"6917.845","MEAN_MOTION_DDOT":"0.0000000000000","ECCENTRICITY":"0.00012950","CENTER_NAME":"EARTH","EPOCH":"2023-04-04T11:26:19.171392","SITE":"AFETR","OBJECT_TYPE":"PAYLOAD","ELEMENT_SET_NO":"999","COUNTRY_CODE":"US","PERIOD":"95.437","TLE_LINE1":"1 52106U 22029U   23094.47661078  .00006559  00000-0  42965-3 0  9990","LAUNCH_DATE":"2022-03-19","RCS_SIZE":"LARGE","REF_FRAME":"TEME","EPHEMERIS_TYPE":"0","REV_AT_EPOCH":"5908","DECAY_DATE":null,"TIME_SYSTEM":"UTC","GP_ID":"229464981","BSTAR":"0.00042965000000","MEAN_ELEMENT_THEORY":"SGP4","TLE_LINE2":"2 52106  53.2151 213.4949 0001295  82.9757 277.1383 15.08851559 59080","CLASSIFICATION_TYPE":"U","INCLINATION":"53.2151","ARG_OF_PERICENTER":"82.9757","MEAN_ANOMALY":"277.1383","FILE":"3879974","MEAN_MOTION_DOT":"0.00006559","RA_OF_ASC_NODE":"213.4949","APOAPSIS":"540.606","OBJECT_NAME":"STARLINK-3670","PERIAPSIS":"538.814","MEAN_MOTION":"15.08851559"},{"MEAN_MOTION":"15.08854423","APOAPSIS":"540.605","PERIAPSIS":"538.798","OBJECT_NAME":"STARLINK-3658","RA_OF_ASC_NODE":"202.1167","MEAN_MOTION_DOT":"0.00007715","ARG_OF_PERICENTER":"96.7202","MEAN_ANOMALY":"263.3938","FILE":"3880211","MEAN_ELEMENT_THEORY":"SGP4","TLE_LINE2":"2 52107  53.2153 202.1167 0001306  96.7202 263.3938 15.08854423 59267","CLASSIFICATION_TYPE":"U","INCLINATION":"53.2153","TIME_SYSTEM":"UTC","GP_ID":"229496590","BSTAR":"0.00050210000000","DECAY_DATE":null,"REV_AT_EPOCH":"5926","EPHEMERIS_TYPE":"0","LAUNCH_DATE":"2022-03-19","REF_FRAME":"TEME","RCS_SIZE":"LARGE","TLE_LINE1":"1 52107U 22029V   23094.78296942  .00007715  00000-0  50210-3 0  9996","PERIOD":"95.437","COUNTRY_CODE":"US","SITE":"AFETR","ELEMENT_SET_NO":"999","OBJECT_TYPE":"PAYLOAD","MEAN_MOTION_DDOT":"0.0000000000000","SEMIMAJOR_AXIS":"6917.836","CENTER_NAME":"EARTH","EPOCH":"2023-04-04T18:47:28.557888","ECCENTRICITY":"0.00013060","NORAD_CAT_ID":"52107","OBJECT_ID":"2022-029V"},{"ECCENTRICITY":"0.00014140","EPOCH":"2023-04-04T17:22:41.173824","CENTER_NAME":"EARTH","SEMIMAJOR_AXIS":"6917.788","MEAN_MOTION_DDOT":"0.0000000000000","NORAD_CAT_ID":"52108","OBJECT_ID":"2022-029W","RCS_SIZE":"LARGE","REF_FRAME":"TEME","LAUNCH_DATE":"2022-03-19","PERIOD":"95.436","TLE_LINE1":"1 52108U 22029W   23094.72408766  .00015874  00000-0  10124-2 0  9994","COUNTRY_CODE":"US","OBJECT_TYPE":"PAYLOAD","ELEMENT_SET_NO":"999","SITE":"AFETR","CLASSIFICATION_TYPE":"U","INCLINATION":"53.2170","MEAN_ELEMENT_THEORY":"SGP4","TLE_LINE2":"2 52108  53.2170 202.3840 0001414  74.2688 285.8460 15.08870079 59259","BSTAR":"0.00101240000000","TIME_SYSTEM":"UTC","GP_ID":"229496840","DECAY_DATE":null,"EPHEMERIS_TYPE":"0","REV_AT_EPOCH":"5925","MEAN_MOTION":"15.08870079","PERIAPSIS":"538.675","OBJECT_NAME":"STARLINK-3698","APOAPSIS":"540.632","MEAN_MOTION_DOT":"0.00015874","RA_OF_ASC_NODE":"202.3840","FILE":"3880211","MEAN_ANOMALY":"285.8460","ARG_OF_PERICENTER":"74.2688"},{"OBJECT_ID":"2022-029Y","MEAN_MOTION_DDOT":"0.0000000000000","SEMIMAJOR_AXIS":"6917.850","CENTER_NAME":"EARTH","EPOCH":"2023-04-04T10:55:51.011328","ECCENTRICITY":"0.00011490","NORAD_CAT_ID":"52110","COUNTRY_CODE":"US","SITE":"AFETR","ELEMENT_SET_NO":"999","OBJECT_TYPE":"PAYLOAD","LAUNCH_DATE":"2022-03-19","REF_FRAME":"TEME","RCS_SIZE":"LARGE","TLE_LINE1":"1 52110U 22029Y   23094.45545152  .00006383  00000-0  41864-3 0  9999","PERIOD":"95.437","DECAY_DATE":null,"REV_AT_EPOCH":"5921","EPHEMERIS_TYPE":"0","TLE_LINE2":"2 52110  53.2170 203.5873 0001149  87.7538 272.3585 15.08849894 59215","MEAN_ELEMENT_THEORY":"SGP4","CLASSIFICATION_TYPE":"U","INCLINATION":"53.2170","TIME_SYSTEM":"UTC","GP_ID":"229466733","BSTAR":"0.00041864000000","RA_OF_ASC_NODE":"203.5873","MEAN_MOTION_DOT":"0.00006383","ARG_OF_PERICENTER":"87.7538","MEAN_ANOMALY":"272.3585","FILE":"3879974","MEAN_MOTION":"15.08849894","APOAPSIS":"540.510","OBJECT_NAME":"STARLINK-3687","PERIAPSIS":"538.920"},{"OBJECT_NAME":"STARLINK-3708","PERIAPSIS":"538.882","APOAPSIS":"540.476","MEAN_MOTION":"15.08861587","FILE":"3880211","MEAN_ANOMALY":"260.7324","ARG_OF_PERICENTER":"99.3798","RA_OF_ASC_NODE":"202.1687","MEAN_MOTION_DOT":"0.00019143","BSTAR":"0.00121690000000","TIME_SYSTEM":"UTC","GP_ID":"229497840","INCLINATION":"53.2147","CLASSIFICATION_TYPE":"U","TLE_LINE2":"2 52111  53.2147 202.1687 0001152  99.3798 260.7324 15.08861587 59269","MEAN_ELEMENT_THEORY":"SGP4","REV_AT_EPOCH":"5926","EPHEMERIS_TYPE":"0","DECAY_DATE":null,"TLE_LINE1":"1 52111U 22029Z   23094.77192635  .00019143  00000-0  12169-2 0  9992","PERIOD":"95.436","REF_FRAME":"TEME","RCS_SIZE":"LARGE","LAUNCH_DATE":"2022-03-19","ELEMENT_SET_NO":"999","OBJECT_TYPE":"PAYLOAD","SITE":"AFETR","COUNTRY_CODE":"US","NORAD_CAT_ID":"52111","EPOCH":"2023-04-04T18:31:34.436640","CENTER_NAME":"EARTH","ECCENTRICITY":"0.00011520","MEAN_MOTION_DDOT":"0.0000000000000","SEMIMAJOR_AXIS":"6917.814","OBJECT_ID":"2022-029Z"},{"OBJECT_ID":"2022-029AA","NORAD_CAT_ID":"52112","EPOCH":"2023-04-04T18:42:09.112032","CENTER_NAME":"EARTH","ECCENTRICITY":"0.00015300","MEAN_MOTION_DDOT":"0.0000000000000","SEMIMAJOR_AXIS":"6917.732","ELEMENT_SET_NO":"999","OBJECT_TYPE":"PAYLOAD","SITE":"AFETR","COUNTRY_CODE":"US","TLE_LINE1":"1 52112U 22029AA  23094.77927213  .00017440  00000-0  11097-2 0  9998","PERIOD":"95.434","REF_FRAME":"TEME","RCS_SIZE":"LARGE","LAUNCH_DATE":"2022-03-19","REV_AT_EPOCH":"5926","EPHEMERIS_TYPE":"0","DECAY_DATE":null,"BSTAR":"0.00110970000000","GP_ID":"229496091","TIME_SYSTEM":"UTC","INCLINATION":"53.2152","CLASSIFICATION_TYPE":"U","MEAN_ELEMENT_THEORY":"SGP4","TLE_LINE2":"2 52112  53.2152 202.1361 0001530  72.6008 287.5151 15.08888401 59262","FILE":"3880211","ARG_OF_PERICENTER":"72.6008","MEAN_ANOMALY":"287.5151","RA_OF_ASC_NODE":"202.1361","MEAN_MOTION_DOT":"0.00017440","OBJECT_NAME":"STARLINK-3734","PERIAPSIS":"538.539","APOAPSIS":"540.656","MEAN_MOTION":"15.08888401"},{"LAUNCH_DATE":"2022-03-19","RCS_SIZE":"LARGE","REF_FRAME":"TEME","PERIOD":"95.436","TLE_LINE1":"1 52113U 22029AB  23094.49961861  .00023215  00000-0  14710-2 0  9997","COUNTRY_CODE":"US","SITE":"AFETR","OBJECT_TYPE":"PAYLOAD","ELEMENT_SET_NO":"999","SEMIMAJOR_AXIS":"6917.809","MEAN_MOTION_DDOT":"0.0000000000000","ECCENTRICITY":"0.00013380","CENTER_NAME":"EARTH","EPOCH":"2023-04-04T11:59:27.047904","NORAD_CAT_ID":"52113","OBJECT_ID":"2022-029AB","MEAN_MOTION":"15.08863217","APOAPSIS":"540.600","OBJECT_NAME":"STARLINK-3736","PERIAPSIS":"538.749","MEAN_MOTION_DOT":"0.00023215","RA_OF_ASC_NODE":"203.3920","ARG_OF_PERICENTER":"71.1465","MEAN_ANOMALY":"288.9672","FILE":"3879974","TLE_LINE2":"2 52113  53.2159 203.3920 0001338  71.1465 288.9672 15.08863217 59228","MEAN_ELEMENT_THEORY":"SGP4","INCLINATION":"53.2159","CLASSIFICATION_TYPE":"U","GP_ID":"229466484","TIME_SYSTEM":"UTC","BSTAR":"0.00147100000000","DECAY_DATE":null,"EPHEMERIS_TYPE":"0","REV_AT_EPOCH":"5922"},{"MEAN_MOTION_DOT":"0.00004779","RA_OF_ASC_NODE":"203.6365","FILE":"3879974","MEAN_ANOMALY":"259.7768","ARG_OF_PERICENTER":"100.3386","MEAN_MOTION":"15.08854407","OBJECT_NAME":"STARLINK-3737","PERIAPSIS":"538.713","APOAPSIS":"540.689","DECAY_DATE":null,"REV_AT_EPOCH":"5921","EPHEMERIS_TYPE":"0","CLASSIFICATION_TYPE":"U","INCLINATION":"53.2139","MEAN_ELEMENT_THEORY":"SGP4","TLE_LINE2":"2 52114  53.2139 203.6365 0001428 100.3386 259.7768 15.08854407 59212","BSTAR":"0.00031803000000","TIME_SYSTEM":"UTC","GP_ID":"229466234","COUNTRY_CODE":"US","OBJECT_TYPE":"PAYLOAD","ELEMENT_SET_NO":"999","SITE":"AFETR","RCS_SIZE":"LARGE","REF_FRAME":"TEME","LAUNCH_DATE":"2022-03-19","PERIOD":"95.437","TLE_LINE1":"1 52114U 22029AC  23094.44441373  .00004779  00000-0  31803-3 0  9991","OBJECT_ID":"2022-029AC","ECCENTRICITY":"0.00014280","CENTER_NAME":"EARTH","EPOCH":"2023-04-04T10:39:57.346272","SEMIMAJOR_AXIS":"6917.836","MEAN_MOTION_DDOT":"0.0000000000000","NORAD_CAT_ID":"52114"},{"OBJECT_ID":"2022-029AD","NORAD_CAT_ID":"52115","SEMIMAJOR_AXIS":"6917.862","MEAN_MOTION_DDOT":"0.0000000000000","ECCENTRICITY":"0.00014960","CENTER_NAME":"EARTH","EPOCH":"2023-04-04T11:48:50.235840","SITE":"AFETR","OBJECT_TYPE":"PAYLOAD","ELEMENT_SET_NO":"999","COUNTRY_CODE":"US","PERIOD":"95.437","TLE_LINE1":"1 52115U 22029AD  23094.49224810  .00008137  00000-0  52865-3 0  9995","LAUNCH_DATE":"2022-03-19","RCS_SIZE":"LARGE","REF_FRAME":"TEME","EPHEMERIS_TYPE":"0","REV_AT_EPOCH":"5922","DECAY_DATE":null,"TIME_SYSTEM":"UTC","GP_ID":"229464982","BSTAR":"0.00052865000000","TLE_LINE2":"2 52115  53.2138 203.4248 0001496  81.5505 278.5657 15.08846173 59226","MEAN_ELEMENT_THEORY":"SGP4","INCLINATION":"53.2138","CLASSIFICATION_TYPE":"U","MEAN_ANOMALY":"278.5657","ARG_OF_PERICENTER":"81.5505","FILE":"3879974","MEAN_MOTION_DOT":"0.00008137","RA_OF_ASC_NODE":"203.4248","APOAPSIS":"540.761","OBJECT_NAME":"STARLINK-3685","PERIAPSIS":"538.692","MEAN_MOTION":"15.08846173"},{"MEAN_ELEMENT_THEORY":"SGP4","TLE_LINE2":"2 52116  53.2152 203.3742 0001472  86.5354 273.5806 15.08866738 59222","INCLINATION":"53.2152","CLASSIFICATION_TYPE":"U","GP_ID":"229465733","TIME_SYSTEM":"UTC","BSTAR":"0.00049557000000","DECAY_DATE":null,"EPHEMERIS_TYPE":"0","REV_AT_EPOCH":"5922","MEAN_MOTION":"15.08866738","APOAPSIS":"540.682","OBJECT_NAME":"STARLINK-3735","PERIAPSIS":"538.645","RA_OF_ASC_NODE":"203.3742","MEAN_MOTION_DOT":"0.00007614","MEAN_ANOMALY":"273.5806","ARG_OF_PERICENTER":"86.5354","FILE":"3879974","MEAN_MOTION_DDOT":"0.0000000000000","SEMIMAJOR_AXIS":"6917.799","EPOCH":"2023-04-04T12:04:42.973824","CENTER_NAME":"EARTH","ECCENTRICITY":"0.00014720","NORAD_CAT_ID":"52116","OBJECT_ID":"2022-029AE","LAUNCH_DATE":"2022-03-19","REF_FRAME":"TEME","RCS_SIZE":"LARGE","TLE_LINE1":"1 52116U 22029AE  23094.50327516  .00007614  00000-0  49557-3 0  9998","PERIOD":"95.436","COUNTRY_CODE":"US","SITE":"AFETR","ELEMENT_SET_NO":"999","OBJECT_TYPE":"PAYLOAD"}];
